IRIDIUM 106             
1 41917U 17003A   24057.54761987  .00000212  00000+0  68684-4 0  9998
2 41917  86.3911  80.2647 0002480  98.2538 261.8939 14.34217386372579
IRIDIUM 103             
1 41918U 17003B   24057.53492909  .00000086  00000+0  23476-4 0  9992
2 41918  86.3911  80.1722 0001874  93.6381 266.5029 14.34216644372594
IRIDIUM 109             
1 41919U 17003C   24057.61104436  .00000226  00000+0  73466-4 0  9997
2 41919  86.3912  80.1860 0002077  86.4593 273.6841 14.34217870372571
IRIDIUM 102             
1 41920U 17003D   24057.57933257 -.00000087  00000+0 -38264-4 0  9999
2 41920  86.3912  80.1407 0002069  87.4773 272.6659 14.34215745372656
IRIDIUM 105             
1 41921U 17003E   24057.48026547  .00000260  00000+0  85962-4 0  9993
2 41921  86.3945  48.5809 0002192  89.5760 270.5686 14.34208722374491
IRIDIUM 104             
1 41922U 17003F   24057.59201360  .00000229  00000+0  74627-4 0  9995
2 41922  86.3912  80.1651 0002007  89.6188 270.5238 14.34217171372649
IRIDIUM 114             
1 41923U 17003G   24057.59835521  .00000082  00000+0  22150-4 0  9999
2 41923  86.3910  80.1487 0002445  96.0374 264.1100 14.34216187372621
IRIDIUM 108             
1 41924U 17003H   24057.48711266 -.00000027  00000+0 -16569-4 0  9995
2 41924  86.3938  48.5102 0002277  93.5699 266.5757 14.34217309374464
